{"spkid": "50591909", "covariance": {"epoch": "2456302.5", "labels": ["e", "q", "tp", "node", "peri", "i"], "elements": [{"value": ".5995604085352695", "title": "eccentricity", "units": null, "sigma": 6.73468565644978e-07, "name": "e", "label": "e"}, {"sigma": 1.04680784998971e-06, "name": "q", "value": ".6552335960813918", "title": "perihelion distance", "units": "au", "label": "q"}, {"label": "tp", "name": "tp", "sigma": 0.000806578526949496, "units": "TDB", "title": "time of perihelion passage", "value": "2456582.060605868033"}, {"title": "longitude of the ascending node", "value": "244.0849505237416", "units": "deg", "name": "om", "sigma": 0.000161289212752511, "label": "node"}, {"label": "peri", "sigma": 0.000124489121628047, "name": "w", "value": "85.07023526579241", "title": "argument of perihelion", "units": "deg"}, {"title": "inclination", "value": "7.789271608491271", "units": "deg", "name": "i", "sigma": 1.92605531003156e-05, "label": "i"}], "data": [["4.535599089119045E-13", "-6.950693208490868E-13", "4.181832568029681E-10", "7.388844145588082E-11", "2.915701072185256E-11", "-3.294862283143905E-12"], ["-6.950693208490868E-13", "1.095806674800077E-12", "-5.518569331736867E-10", "-1.034155863124858E-10", "-3.487014380335873E-11", "4.908075527444837E-12"], ["4.181832568029681E-10", "-5.518569331736867E-10", "6.505689201360184E-7", "9.821981769474755E-8", "5.645638538266135E-8", "-3.543245816728687E-9"], ["7.388844145588082E-11", "-1.034155863124858E-10", "9.821981769474755E-8", "2.601421015032488E-8", "-2.176019437291327E-9", "5.07737270997387E-10"], ["2.915701072185256E-11", "-3.487014380335873E-11", "5.645638538266135E-8", "-2.176019437291327E-9", "1.549754140372276E-8", "-1.376597628209348E-9"], ["-3.294862283143905E-12", "4.908075527444837E-12", "-3.543245816728687E-9", "5.07737270997387E-10", "-1.376597628209348E-9", "3.70968905730076E-10"]]}, "elements": [{"name": "e", "sigma": "6.7585E-7", "title": "eccentricity", "value": ".5999152613208959", "units": null, "label": "e"}, {"units": "au", "title": "semi-major axis", "value": "1.636351138805314", "name": "a", "sigma": "5.2581E-7", "label": "a"}, {"label": "q", "title": "perihelion distance", "value": ".6546791177561783", "units": "au", "name": "q", "sigma": "1.044E-6"}, {"title": "inclination; angle with respect to x-y ecliptic plane", "value": "7.788876009076554", "units": "deg", "name": "i", "sigma": "1.9107E-5", "label": "i"}, {"name": "om", "sigma": ".00016045", "units": "deg", "value": "243.8090873064724", "title": "longitude of the ascending node", "label": "node"}, {"units": "deg", "value": "85.35630070899117", "title": "argument of perihelion", "sigma": ".00012711", "name": "w", "label": "peri"}, {"sigma": ".001277", "name": "ma", "units": "deg", "title": "mean anomaly", "value": "14.41066482551217", "label": "M"}, {"name": "tp", "sigma": ".0026974", "value": "2461169.894836931715", "title": "time of perihelion passage", "units": "TDB", "label": "tp"}, {"label": "period", "units": "d", "title": "sidereal orbital period", "value": "764.5628316243105", "sigma": ".00036852", "name": "per"}, {"label": "n", "units": "deg/d", "title": "mean motion", "value": ".4708573123221038", "name": "n", "sigma": "2.2695E-7"}, {"label": "Q", "sigma": "8.4126E-7", "name": "ad", "title": "aphelion distance", "value": "2.618023159854449", "units": "au"}], "epoch": "2461200.5"}